{
    "satellites": [
        {
            "name": "starlink332",
            "title": "Starlink-332 (G11-15) (new)",
            "tle": [
                "1 72001C 25286B   25341.79091389  .01542800  00000+0  23542-2 0    04",
                "2 72001  53.1650  76.3322 0009995 282.9953  77.2102 16.03079133    18"
            ],
            "stdMag": 5,
            "noradId": "72001",
            "tleUrl": "http://celestrak.org/NORAD/elements/supplemental/sup-gp.php?FILE=starlink-g11-15&FORMAT=tle",
            "launchDate": "2025-12-07T17:58:30.000Z",
            "active": true
        }
    ],
    "config": {}
}